COSMOS 2433 (720)       
1 32275C 07052A   22101.99979167 -.00000000  00000-0  00000-0 0  1012
2 32275  66.0830   6.8758 0001962 294.1053 105.6152  2.13104194    16
COSMOS 2432 (719)       
1 32276C 07052B   22101.99979167 -.00000000  00000-0  00000-0 0  1013
2 32276  66.0964   6.9755 0011223 335.9656  12.2545  2.13103493    17
COSMOS 2434 (721)       
1 32393C 07065A   22101.99979167  .00000000  00000-0  00000-0 0  1016
2 32393  64.3977 243.6936 0004022  84.6787 204.3666  2.13103274    10
COSMOS 2436 (723)       
1 32395C 07065C   22101.99979167  .00000000  00000-0  00000-0 0  1018
2 32395  64.4065 243.7501 0015518   5.1661  59.7950  2.13103169    12
COSMOS 2456 (730)       
1 36111C 09070A   22101.99979167 -.00000000  00000-0  00000-0 0  1017
2 36111  64.3354 123.3365 0006237 302.2540 153.2838  2.13099400    15
COSMOS 2457 (733)       
1 36112C 09070B   22101.99979167 -.00000000  00000-0  00000-0 0  1018
2 36112  64.3186 123.2140 0004355 198.9599  23.3436  2.13101490    16
COSMOS 2461 (735)       
1 36401C 10007B   22101.99979167  .00000000  00000-0  00000-0 0  1010
2 36401  65.9696   5.7232 0022051   7.7915 249.4228  2.13103795    18
COSMOS 2460 (732)       
1 36402C 10007C   22101.99979167  .00000000  00000-0  00000-0 0  1011
2 36402  65.9564   5.6749 0002119  22.6686 182.3346  2.13106457    13
COSMOS 2476 (744)       
1 37867C 11064A   22101.99979167 -.00000000  00000-0  00000-0 0  1012
2 37867  64.6253 124.6670 0023187 241.3898 119.0928  2.13101931    13
COSMOS 2477 (745)       
1 37868C 11064B   22101.99979167 -.00000000  00000-0  00000-0 0  1013
2 37868  64.6331 124.7309 0020538 242.8615 295.7677  2.13101787    13
COSMOS 2475 (743)       
1 37869C 11064C   22101.99979167 -.00000000  00000-0  00000-0 0  1014
2 37869  64.6404 124.7385 0025121 258.9073 237.6649  2.13102067    14
COSMOS 2485 (747)       
1 39155C 13019A   22101.99979167 -.00000000  00000-0  00000-0 0  1016
2 39155  64.7896 125.0808 0023477 237.4669 167.4124  2.13102026    12
COSMOS 2492 (754)       
1 39620C 14012A   22101.99979167  .00000000  00000-0  00000-0 0  1016
2 39620  65.8432   5.3655 0014096 330.3915 109.0328  2.13103326    13
COSMOS 2500 (755)       
1 40001C 14032A   22101.99979167  .00000000  00000-0  00000-0 0  1013
2 40001  65.7829   5.2316 0004227 204.4625  93.8043  2.13102429    11
COSMOS 2501 (702K)      
1 40315C 14075A   22101.99979167  .00000000  00000-0  00000-0 0  1018
2 40315  63.7054 243.4962 0017282 206.4527 259.4726  2.13101565    16
COSMOS 2514 (751)       
1 41330C 16008A   22101.99979167  .00000000  00000-0  00000-0 0  1014
2 41330  65.5833   4.9400 0008028 215.6305 266.3459  2.13102946    14
COSMOS 2547 (705K)      
1 46805C 20075A   22101.99979167  .00000000  00000-0  00000-0 0  1015
2 46805  64.6749 243.7108 0006021 243.3199 135.5335  2.13103345    14
COSMOS 2522 (752)       
1 42939C 17055A   22101.99979167  .00000000  00000-0  00000-0 0  1013
2 42939  64.1649 244.1291 0006160 239.4548   1.8186  2.13102049    17
COSMOS 2527 (756)       
1 43508C 18053A   22101.99979167 -.00000000  00000-0  00000-0 0  1016
2 43508  64.9527 125.0671 0009760 242.6708  30.7113  2.13102642    15
COSMOS 2529 (757)       
1 43687C 18086A   22101.99979167  .00000000  00000-0  00000-0 0  1019
2 43687  64.3797 244.4275 0008094 269.1323 287.6554  2.13102206    16
COSMOS 2534 (758)       
1 44299C 19030A   22101.99979167  .00000000  00000-0  00000-0 0  1019
2 44299  64.4514 244.3061 0010950 291.5833  39.8156  2.13102204    18
COSMOS 2544 (759)       
1 44850C 19088A   22101.99979167 -.00000000  00000-0  00000-0 0  1016
2 44850  64.9378 124.9207 0014673 263.8325  53.0703  2.13102417    15
COSMOS 2545 (760)       
1 45358C 20018A   22101.99979167  .00000000  00000-0  00000-0 0  1014
2 45358  64.9203   5.6025 0007771 259.6516 266.8190  2.13102795    18
